NORAD_CAT_ID,OBJECT_NAME,OBJECT_TYPE,EPOCH,MEAN_MOTION,ECCENTRICITY,INCLINATION,RA_OF_ASC_NODE,ARG_OF_PERICENTER,MEAN_ANOMALY,BSTAR,MEAN_MOTION_DOT,MEAN_MOTION_DDOT,TLE_LINE0,TLE_LINE1,TLE_LINE2,SEMIMAJOR_AXIS,PERIOD,APOGEE,PERIGEE,DECAYED
56792.0,STARLINK-6046,PAYLOAD,2024-06-03 10:29:19,14.98329914,0.0003239,69.9981,168.9968,269.0054,91.0734,2.9858e-05,2.63e-06,0.0,0 STARLINK-6046,1 56792U 23078AB  24155.43702664  .00000263  00000-0  29858-4 0  9995,2 56792  69.9981 168.9968 0003239 269.0054  91.0734 14.98329914 56176,6950.193,96.107,574.309,569.807,0.0
56792.0,STARLINK-6046,PAYLOAD,2024-06-03 18:29:59,14.98331405,0.0003262,69.9981,168.155,269.072,91.0065,5.7436e-05,5.92e-06,0.0,0 STARLINK-6046,1 56792U 23078AB  24155.77082503  .00000592  00000-0  57436-4 0  9993,2 56792  69.9981 168.1550 0003262 269.0720  91.0065 14.98331405 56222,6950.189,96.107,574.321,569.786,0.0
56792.0,STARLINK-6046,PAYLOAD,2024-06-04 04:06:47,14.98331507,0.0003286,69.9981,167.145,268.8112,91.2671,9.2169e-05,1.007e-05,0.0,0 STARLINK-6046,1 56792U 23078AB  24156.17138398  .00001007  00000-0  92169-4 0  9996,2 56792  69.9981 167.1450 0003286 268.8112  91.2671 14.98331507 56541,6950.188,96.107,574.337,569.769,0.0
56792.0,STARLINK-6046,PAYLOAD,2024-06-04 10:31:19,14.98333572,0.0003277,69.998,166.4717,268.8561,91.2223,0.00010644,1.177e-05,0.0,0 STARLINK-6046,1 56792U 23078AB  24156.43842228  .00001177  00000-0  10644-3 0  9994,2 56792  69.9980 166.4717 0003277 268.8561  91.2223 14.98333572 56329,6950.182,96.107,574.324,569.769,0.0
56792.0,STARLINK-6046,PAYLOAD,2024-06-04 18:32:00,14.98332728,0.0003268,69.998,165.63,268.8362,91.2422,7.9278e-05,8.53e-06,0.0,0 STARLINK-6046,1 56792U 23078AB  24156.77222300  .00000853  00000-0  79278-4 0  9993,2 56792  69.9980 165.6300 0003268 268.8362  91.2422 14.98332728 56375,6950.184,96.107,574.321,569.778,0.0
56792.0,STARLINK-6046,PAYLOAD,2024-06-05 04:08:48,14.98331962,0.0003252,69.998,164.62,268.6017,91.477,5.2708e-05,5.36e-06,0.0,0 STARLINK-6046,1 56792U 23078AB  24157.17278347  .00000536  00000-0  52708-4 0  9997,2 56792  69.9980 164.6200 0003252 268.6017  91.4770 14.98331962 56693,6950.187,96.107,574.312,569.792,0.0
56792.0,STARLINK-6046,PAYLOAD,2024-06-05 10:33:20,14.98332586,0.0003265,69.9982,163.9469,268.9604,91.1181,5.4687e-05,5.6e-06,0.0,0 STARLINK-6046,1 56792U 23078AB  24157.43982277  .00000560  00000-0  54687-4 0  9995,2 56792  69.9982 163.9469 0003265 268.9604  91.1181 14.98332586 56475,6950.185,96.107,574.319,569.781,0.0
56792.0,STARLINK-6046,PAYLOAD,2024-06-06 04:10:49,14.98330413,0.0003205,69.9984,162.0953,269.0332,91.046,-1.6816e-05,-2.94e-06,0.0,0 STARLINK-6046,1 56792U 23078AB  24158.17418567 -.00000294  00000-0 -16816-4 0  9991,2 56792  69.9984 162.0953 0003205 269.0332  91.0460 14.98330413 56846,6950.192,96.107,574.284,569.829,0.0
56792.0,STARLINK-6046,PAYLOAD,2024-06-06 10:35:21,14.98331141,0.0003205,69.9985,161.4221,269.1801,90.8991,-1.0806e-05,-2.22e-06,0.0,0 STARLINK-6046,1 56792U 23078AB  24158.44122482 -.00000222  00000-0 -10806-4 0  9993,2 56792  69.9985 161.4221 0003205 269.1801  90.8991 14.98331141 56621,6950.189,96.107,574.282,569.827,0.0
56792.0,STARLINK-6046,PAYLOAD,2024-06-07 09:01:14,14.98333302,0.0003169,69.9989,159.0658,269.9556,90.124,5.8854e-05,6.09e-06,0.0,0 STARLINK-6046,1 56792U 23078AB  24159.37586086  .00000609  00000-0  58854-4 0  9992,2 56792  69.9989 159.0658 0003169 269.9556  90.1240 14.98333302 57022,6950.183,96.107,574.25,569.845,0.0
56792.0,STARLINK-6046,PAYLOAD,2024-06-07 17:01:54,14.98332753,0.0003168,69.9989,158.2241,269.8081,90.2715,5.5643e-05,5.71e-06,0.0,0 STARLINK-6046,1 56792U 23078AB  24159.70966090  .00000571  00000-0  55643-4 0  9997,2 56792  69.9989 158.2241 0003168 269.8081  90.2715 14.98332753 56815,6950.184,96.107,574.251,569.848,0.0
56792.0,STARLINK-6046,PAYLOAD,2024-06-08 09:03:15,14.98334021,0.0003138,69.9988,156.541,269.4741,90.6058,9.448e-05,1.035e-05,0.0,0 STARLINK-6046,1 56792U 23078AB  24160.37725857  .00001035  00000-0  94480-4 0  9994,2 56792  69.9988 156.5410 0003138 269.4741  90.6058 14.98334021 57173,6950.18,96.107,574.226,569.864,0.0
56792.0,STARLINK-6046,PAYLOAD,2024-06-08 17:03:53,14.9836973,0.0003342,69.9991,155.6975,272.7138,87.3638,8.4424e-06,8e-08,0.0,0 STARLINK-6046,1 56792U 23078AB  24160.71103254  .00000008  00000-0  84424-5 0  9990,2 56792  69.9991 155.6975 0003342 272.7138  87.3638 14.98369730 57225,6950.07,96.104,574.258,569.612,0.0
56792.0,STARLINK-6046,PAYLOAD,2024-06-09 04:16:50,14.98350813,0.0002999,69.9997,154.5195,270.5871,89.4944,0.0001912,2.19e-05,0.0,0 STARLINK-6046,1 56792U 23078AB  24161.17835682  .00002190  00000-0  19120-3 0  9991,2 56792  69.9997 154.5195 0002999 270.5871  89.4944 14.98350813 57292,6950.129,96.106,574.078,569.909,0.0
56792.0,STARLINK-6046,PAYLOAD,2024-06-09 09:05:16,14.98324822,0.0003054,69.9993,154.0164,269.4638,90.6171,-0.00010016,-1.288e-05,0.0,0 STARLINK-6046,1 56792U 23078AB  24161.37865999 -.00001288  00000-0 -10016-3 0  9991,2 56792  69.9993 154.0164 0003054 269.4638  90.6171 14.98324822 57321,6950.209,96.107,574.196,569.951,0.0
56792.0,STARLINK-6046,PAYLOAD,2024-06-09 17:05:56,14.98324974,0.0003139,69.999,153.1746,269.9278,90.1521,-9.2977e-05,-1.202e-05,0.0,0 STARLINK-6046,1 56792U 23078AB  24161.71245956 -.00001202  00000-0 -92977-4 0  9997,2 56792  69.9990 153.1746 0003139 269.9278  90.1521 14.98324974 57112,6950.208,96.107,574.255,569.892,0.0
56792.0,STARLINK-6046,PAYLOAD,2024-06-10 09:07:17,14.98325633,0.0003069,69.999,151.4911,269.2185,90.8622,-5.9613e-05,-8.04e-06,0.0,0 STARLINK-6046,1 56792U 23078AB  24162.38006018 -.00000804  00000-0 -59613-4 0  9992,2 56792  69.9990 151.4911 0003069 269.2185  90.8622 14.98325633 57470,6950.206,96.107,574.204,569.938,0.0
56792.0,STARLINK-6046,PAYLOAD,2024-06-10 17:07:57,14.98335982,0.0003212,69.9988,150.6493,269.7503,90.3288,-0.00020077,-2.488e-05,0.0,0 STARLINK-6046,1 56792U 23078AB  24162.71385665 -.00002488  00000-0 -20077-3 0  9998,2 56792  69.9988 150.6493 0003212 269.7503  90.3288 14.98335982 57529,6950.174,96.107,574.272,569.807,0.0
56792.0,STARLINK-6046,PAYLOAD,2024-06-11 09:09:17,14.98330221,0.0003101,69.9991,148.9663,271.7381,88.3423,-4.9148e-05,-6.79e-06,0.0,0 STARLINK-6046,1 56792U 23078AB  24163.38145639 -.00000679  00000-0 -49148-4 0  9998,2 56792  69.9991 148.9663 0003101 271.7381  88.3423 14.98330221 57367,6950.192,96.107,574.212,569.902,0.0
56792.0,STARLINK-6046,PAYLOAD,2024-06-12 02:46:46,14.98323532,0.0003123,69.9989,147.1148,270.7651,89.315,0.00011057,1.226e-05,0.0,0 STARLINK-6046,1 56792U 23078AB  24164.11582138  .00001226  00000-0  11057-3 0  9993,2 56792  69.9989 147.1148 0003123 270.7651  89.3150 14.98323532 57732,6950.213,96.107,574.248,569.907,0.0
56792.0,STARLINK-6046,PAYLOAD,2024-06-12 05:59:03,14.98324955,0.0003113,69.9989,146.7783,270.6624,89.4178,0.00012557,1.405e-05,0.0,0 STARLINK-6046,1 56792U 23078AB  24164.24934078  .00001405  00000-0  12557-3 0  9996,2 56792  69.9989 146.7783 0003113 270.6624  89.4178 14.98324955 57494,6950.208,96.107,574.237,569.91,0.0
56792.0,STARLINK-6046,PAYLOAD,2024-06-12 15:35:51,14.98327137,0.0003073,69.999,145.7682,271.0589,89.0217,0.00011194,1.243e-05,0.0,0 STARLINK-6046,1 56792U 23078AB  24164.64990090  .00001243  00000-0  11194-3 0  9992,2 56792  69.9990 145.7682 0003073 271.0589  89.0217 14.98327137 57555,6950.202,96.107,574.203,569.931,0.0
56792.0,STARLINK-6046,PAYLOAD,2024-06-13 04:24:55,14.98329298,0.0003076,69.9989,144.4217,270.6019,89.4788,9.8364e-05,1.081e-05,0.0,0 STARLINK-6046,1 56792U 23078AB  24165.18398096  .00001081  00000-0  98364-4 0  9995,2 56792  69.9989 144.4217 0003076 270.6019  89.4788 14.98329298 57893,6950.195,96.107,574.198,569.922,0.0
56792.0,STARLINK-6046,PAYLOAD,2024-06-13 09:13:19,14.983322,0.000304,69.999,143.9169,270.1258,89.9553,0.00012754,1.429e-05,0.0,0 STARLINK-6046,1 56792U 23078AB  24165.38425853  .00001429  00000-0  12754-3 0  9993,2 56792  69.9990 143.9169 0003040 270.1258  89.9553 14.98332200 57663,6950.186,96.107,574.164,569.938,0.0
56792.0,STARLINK-6046,PAYLOAD,2024-06-13 15:37:52,14.98329849,0.0003034,69.999,143.2435,270.5954,89.4858,8.4188e-05,9.12e-06,0.0,0 STARLINK-6046,1 56792U 23078AB  24165.65130082  .00000912  00000-0  84188-4 0  9997,2 56792  69.9990 143.2435 0003034 270.5954  89.4858 14.98329849 57705,6950.193,96.107,574.167,569.95,0.0
56792.0,STARLINK-6046,PAYLOAD,2024-06-14 07:39:13,14.98330488,0.0002986,69.9991,141.5605,269.9443,90.1374,5.0836e-05,5.14e-06,0.0,0 STARLINK-6046,1 56792U 23078AB  24166.31890154  .00000514  00000-0  50836-4 0  9995,2 56792  69.9991 141.5605 0002986 269.9443  90.1374 14.98330488 57800,6950.191,96.107,574.132,569.981,0.0
56792.0,STARLINK-6046,PAYLOAD,2024-06-14 22:04:25,14.98332654,0.0002942,69.9993,140.0456,269.1364,90.9458,3.5496e-05,3.31e-06,0.0,0 STARLINK-6046,1 56792U 23078AB  24166.91974018  .00000331  00000-0  35496-4 0  9995,2 56792  69.9993 140.0456 0002942 269.1364  90.9458 14.98332654 57893,6950.185,96.107,574.094,570.005,0.0
56792.0,STARLINK-6046,PAYLOAD,2024-06-15 07:41:13,14.98334659,0.0002926,69.9994,139.0356,268.0971,91.9853,6.0841e-05,6.33e-06,0.0,0 STARLINK-6046,1 56792U 23078AB  24167.32029732  .00000633  00000-0  60841-4 0  9992,2 56792  69.9994 139.0356 0002926 268.0971  91.9853 14.98334659 57959,6950.178,96.107,574.077,570.01,0.0
56792.0,STARLINK-6046,PAYLOAD,2024-06-15 22:06:26,14.98329242,0.0003028,69.9991,137.5202,269.1632,90.918,5.4682e-05,5.59e-06,0.0,0 STARLINK-6046,1 56792U 23078AB  24167.92113989  .00000559  00000-0  54682-4 0  9999,2 56792  69.9991 137.5202 0003028 269.1632  90.9180 14.98329242 58044,6950.195,96.107,574.165,569.956,0.0
56792.0,STARLINK-6046,PAYLOAD,2024-06-16 07:43:14,14.98332777,0.0003019,69.9992,136.5107,269.9494,90.1319,6.9634e-05,7.38e-06,0.0,0 STARLINK-6046,1 56792U 23078AB  24168.32169736  .00000738  00000-0  69634-4 0  9997,2 56792  69.9992 136.5107 0003019 269.9494  90.1319 14.98332777 58102,6950.184,96.107,574.148,569.951,0.0
